ONEWEB-0333             
1 49199U 21083P   26076.19380320  .00000063  00000+0  13686-3 0  9998
2 49199  87.9020 338.5453 0001680  78.9507 281.1812 13.13470372218838
ONEWEB-0334             
1 49200U 21083Q   26076.09803962  .00000156  00000+0  35270-3 0  9998
2 49200  87.9151 292.8411 0002344 106.5871 253.5520 13.20771341224634
ONEWEB-0335             
1 49201U 21083R   26076.18872985  .00000261  00000+0  67911-3 0  9994
2 49201  87.9028 338.5405 0001609  73.1240 287.0066 13.13469748218841
ONEWEB-0336             
1 49202U 21083S   26076.15994808  .00000253  00000+0  65896-3 0  9992
2 49202  87.9026 338.5425 0001613  64.8902 295.2394 13.13471458218834
ONEWEB-0337             
1 49203U 21083T   26076.16998270  .00000395  00000+0  10462-2 0  9996
2 49203  87.9019 338.5497 0001831  73.0430 287.0899 13.13470211218831
ONEWEB-0338             
1 49204U 21083U   26076.30005339  .00000078  00000+0  16064-3 0  9991
2 49204  87.9153 292.8057 0001890  95.1414 264.9935 13.20770900224688
ONEWEB-0339             
1 49205U 21083V   26076.17857412  .00000343  00000+0  90449-3 0  9998
2 49205  87.9032 338.5365 0001959  83.8534 276.2818 13.13471183218815
ONEWEB-0340             
1 49206U 21083W   26076.17182560  .00000074  00000+0  15481-3 0  9998
2 49206  87.9253 353.7318 0001731  76.7013 283.4312 13.18686804217843
ONEWEB-0341             
1 49207U 21083X   26076.17842424  .00000058  00000+0  11415-3 0  9996
2 49207  87.9248 353.7397 0002181  68.5264 291.6101 13.18687019217860
ONEWEB-0342             
1 49208U 21083Y   26076.15485110  .00000055  00000+0  10408-3 0  9998
2 49208  87.9162 292.8138 0001802  89.1825 270.9515 13.20769981224637
ONEWEB-0343             
1 49209U 21083Z   26076.18666710  .00000051  00000+0  97431-4 0  9997
2 49209  87.9257 353.7325 0002361  76.1768 283.9627 13.18686986217912
ONEWEB-0344             
1 49210U 21083AA  26076.09731343  .00000358  00000+0  94569-3 0  9992
2 49210  87.9018 338.5752 0001967  69.6004 290.5336 13.13471538218805
ONEWEB-0345             
1 49211U 21083AB  26076.16503111  .00000290  00000+0  75808-3 0  9991
2 49211  87.9029 338.5302 0001983  71.1586 288.9758 13.13470319218827
ONEWEB-0346             
1 49212U 21083AC  26076.18335437  .00000103  00000+0  22815-3 0  9991
2 49212  87.9242 353.7406 0001304  60.8870 299.2393 13.18685238217852
ONEWEB-0348             
1 49213U 21083AD  26076.29689749  .00000054  00000+0  10046-3 0  9990
2 49213  87.9160 292.7883 0001513  68.1335 291.9959 13.20771274224687
ONEWEB-0350             
1 49214U 21083AE  26076.17433759  .00000379  00000+0  10037-2 0  9995
2 49214  87.9028 338.5274 0001881  69.1772 290.9558 13.13471512218858
