[{"OBJECT_NAME":"ONEWEB-0333","OBJECT_ID":"2021-083P","EPOCH":"2026-03-17T04:39:04.596480","MEAN_MOTION":13.13470372,"ECCENTRICITY":0.00016806,"INCLINATION":87.902,"RA_OF_ASC_NODE":338.5453,"ARG_OF_PERICENTER":78.9507,"MEAN_ANOMALY":281.1812,"EPHEMERIS_TYPE":0,"CLASSIFICATION_TYPE":"U","NORAD_CAT_ID":49199,"ELEMENT_SET_NO":999,"REV_AT_EPOCH":21883,"BSTAR":0.00013686216,"MEAN_MOTION_DOT":6.3e-7,"MEAN_MOTION_DDOT":0},{"OBJECT_NAME":"ONEWEB-0334","OBJECT_ID":"2021-083Q","EPOCH":"2026-03-17T02:21:10.623168","MEAN_MOTION":13.20771341,"ECCENTRICITY":0.00023445,"INCLINATION":87.9151,"RA_OF_ASC_NODE":292.8411,"ARG_OF_PERICENTER":106.5871,"MEAN_ANOMALY":253.552,"EPHEMERIS_TYPE":0,"CLASSIFICATION_TYPE":"U","NORAD_CAT_ID":49200,"ELEMENT_SET_NO":999,"REV_AT_EPOCH":22463,"BSTAR":0.00035269777,"MEAN_MOTION_DOT":1.56e-6,"MEAN_MOTION_DDOT":0},{"OBJECT_NAME":"ONEWEB-0335","OBJECT_ID":"2021-083R","EPOCH":"2026-03-17T04:31:46.259040","MEAN_MOTION":13.13469748,"ECCENTRICITY":0.0001609,"INCLINATION":87.9028,"RA_OF_ASC_NODE":338.5405,"ARG_OF_PERICENTER":73.124,"MEAN_ANOMALY":287.0066,"EPHEMERIS_TYPE":0,"CLASSIFICATION_TYPE":"U","NORAD_CAT_ID":49201,"ELEMENT_SET_NO":999,"REV_AT_EPOCH":21884,"BSTAR":0.00067910909,"MEAN_MOTION_DOT":2.61e-6,"MEAN_MOTION_DDOT":0},{"OBJECT_NAME":"ONEWEB-0336","OBJECT_ID":"2021-083S","EPOCH":"2026-03-17T03:50:19.514112","MEAN_MOTION":13.13471458,"ECCENTRICITY":0.00016132,"INCLINATION":87.9026,"RA_OF_ASC_NODE":338.5425,"ARG_OF_PERICENTER":64.8902,"MEAN_ANOMALY":295.2394,"EPHEMERIS_TYPE":0,"CLASSIFICATION_TYPE":"U","NORAD_CAT_ID":49202,"ELEMENT_SET_NO":999,"REV_AT_EPOCH":21883,"BSTAR":0.00065896361,"MEAN_MOTION_DOT":2.53e-6,"MEAN_MOTION_DDOT":0},{"OBJECT_NAME":"ONEWEB-0337","OBJECT_ID":"2021-083T","EPOCH":"2026-03-17T04:04:46.505280","MEAN_MOTION":13.13470211,"ECCENTRICITY":0.00018318,"INCLINATION":87.9019,"RA_OF_ASC_NODE":338.5497,"ARG_OF_PERICENTER":73.043,"MEAN_ANOMALY":287.0899,"EPHEMERIS_TYPE":0,"CLASSIFICATION_TYPE":"U","NORAD_CAT_ID":49203,"ELEMENT_SET_NO":999,"REV_AT_EPOCH":21883,"BSTAR":0.0010461844,"MEAN_MOTION_DOT":3.95e-6,"MEAN_MOTION_DDOT":0},{"OBJECT_NAME":"ONEWEB-0338","OBJECT_ID":"2021-083U","EPOCH":"2026-03-17T07:12:04.612896","MEAN_MOTION":13.207709,"ECCENTRICITY":0.00018902,"INCLINATION":87.9153,"RA_OF_ASC_NODE":292.8057,"ARG_OF_PERICENTER":95.1414,"MEAN_ANOMALY":264.9935,"EPHEMERIS_TYPE":0,"CLASSIFICATION_TYPE":"U","NORAD_CAT_ID":49204,"ELEMENT_SET_NO":999,"REV_AT_EPOCH":22468,"BSTAR":0.00016063711,"MEAN_MOTION_DOT":7.8e-7,"MEAN_MOTION_DDOT":0},{"OBJECT_NAME":"ONEWEB-0339","OBJECT_ID":"2021-083V","EPOCH":"2026-03-17T04:17:08.803968","MEAN_MOTION":13.13471183,"ECCENTRICITY":0.00019594,"INCLINATION":87.9032,"RA_OF_ASC_NODE":338.5365,"ARG_OF_PERICENTER":83.8534,"MEAN_ANOMALY":276.2818,"EPHEMERIS_TYPE":0,"CLASSIFICATION_TYPE":"U","NORAD_CAT_ID":49205,"ELEMENT_SET_NO":999,"REV_AT_EPOCH":21881,"BSTAR":0.00090448735,"MEAN_MOTION_DOT":3.43e-6,"MEAN_MOTION_DDOT":0},{"OBJECT_NAME":"ONEWEB-0340","OBJECT_ID":"2021-083W","EPOCH":"2026-03-17T04:07:25.731840","MEAN_MOTION":13.18686804,"ECCENTRICITY":0.00017319,"INCLINATION":87.9253,"RA_OF_ASC_NODE":353.7318,"ARG_OF_PERICENTER":76.7013,"MEAN_ANOMALY":283.4312,"EPHEMERIS_TYPE":0,"CLASSIFICATION_TYPE":"U","NORAD_CAT_ID":49206,"ELEMENT_SET_NO":999,"REV_AT_EPOCH":21784,"BSTAR":0.00015481394,"MEAN_MOTION_DOT":7.4e-7,"MEAN_MOTION_DDOT":0},{"OBJECT_NAME":"ONEWEB-0341","OBJECT_ID":"2021-083X","EPOCH":"2026-03-17T04:16:55.854336","MEAN_MOTION":13.18687019,"ECCENTRICITY":0.00021818,"INCLINATION":87.9248,"RA_OF_ASC_NODE":353.7397,"ARG_OF_PERICENTER":68.5264,"MEAN_ANOMALY":291.6101,"EPHEMERIS_TYPE":0,"CLASSIFICATION_TYPE":"U","NORAD_CAT_ID":49207,"ELEMENT_SET_NO":999,"REV_AT_EPOCH":21786,"BSTAR":0.00011414953,"MEAN_MOTION_DOT":5.8e-7,"MEAN_MOTION_DDOT":0},{"OBJECT_NAME":"ONEWEB-0342","OBJECT_ID":"2021-083Y","EPOCH":"2026-03-17T03:42:59.135040","MEAN_MOTION":13.20769981,"ECCENTRICITY":0.00018024,"INCLINATION":87.9162,"RA_OF_ASC_NODE":292.8138,"ARG_OF_PERICENTER":89.1825,"MEAN_ANOMALY":270.9515,"EPHEMERIS_TYPE":0,"CLASSIFICATION_TYPE":"U","NORAD_CAT_ID":49208,"ELEMENT_SET_NO":999,"REV_AT_EPOCH":22463,"BSTAR":0.0001040808,"MEAN_MOTION_DOT":5.5e-7,"MEAN_MOTION_DDOT":0},{"OBJECT_NAME":"ONEWEB-0343","OBJECT_ID":"2021-083Z","EPOCH":"2026-03-17T04:28:48.037440","MEAN_MOTION":13.18686986,"ECCENTRICITY":0.00023619,"INCLINATION":87.9257,"RA_OF_ASC_NODE":353.7325,"ARG_OF_PERICENTER":76.1768,"MEAN_ANOMALY":283.9627,"EPHEMERIS_TYPE":0,"CLASSIFICATION_TYPE":"U","NORAD_CAT_ID":49209,"ELEMENT_SET_NO":999,"REV_AT_EPOCH":21791,"BSTAR":9.7431494e-5,"MEAN_MOTION_DOT":5.1e-7,"MEAN_MOTION_DDOT":0},{"OBJECT_NAME":"ONEWEB-0344","OBJECT_ID":"2021-083AA","EPOCH":"2026-03-17T02:20:07.880352","MEAN_MOTION":13.13471538,"ECCENTRICITY":0.00019679,"INCLINATION":87.9018,"RA_OF_ASC_NODE":338.5752,"ARG_OF_PERICENTER":69.6004,"MEAN_ANOMALY":290.5336,"EPHEMERIS_TYPE":0,"CLASSIFICATION_TYPE":"U","NORAD_CAT_ID":49210,"ELEMENT_SET_NO":999,"REV_AT_EPOCH":21880,"BSTAR":0.00094569408,"MEAN_MOTION_DOT":3.58e-6,"MEAN_MOTION_DDOT":0},{"OBJECT_NAME":"ONEWEB-0345","OBJECT_ID":"2021-083AB","EPOCH":"2026-03-17T03:57:38.687904","MEAN_MOTION":13.13470319,"ECCENTRICITY":0.00019832,"INCLINATION":87.9029,"RA_OF_ASC_NODE":338.5302,"ARG_OF_PERICENTER":71.1586,"MEAN_ANOMALY":288.9758,"EPHEMERIS_TYPE":0,"CLASSIFICATION_TYPE":"U","NORAD_CAT_ID":49211,"ELEMENT_SET_NO":999,"REV_AT_EPOCH":21882,"BSTAR":0.00075807612,"MEAN_MOTION_DOT":2.9e-6,"MEAN_MOTION_DDOT":0},{"OBJECT_NAME":"ONEWEB-0346","OBJECT_ID":"2021-083AC","EPOCH":"2026-03-17T04:24:01.817568","MEAN_MOTION":13.18685238,"ECCENTRICITY":0.00013044,"INCLINATION":87.9242,"RA_OF_ASC_NODE":353.7406,"ARG_OF_PERICENTER":60.887,"MEAN_ANOMALY":299.2393,"EPHEMERIS_TYPE":0,"CLASSIFICATION_TYPE":"U","NORAD_CAT_ID":49212,"ELEMENT_SET_NO":999,"REV_AT_EPOCH":21785,"BSTAR":0.00022815051,"MEAN_MOTION_DOT":1.03e-6,"MEAN_MOTION_DDOT":0},{"OBJECT_NAME":"ONEWEB-0348","OBJECT_ID":"2021-083AD","EPOCH":"2026-03-17T07:07:31.943136","MEAN_MOTION":13.20771274,"ECCENTRICITY":0.00015137,"INCLINATION":87.916,"RA_OF_ASC_NODE":292.7883,"ARG_OF_PERICENTER":68.1335,"MEAN_ANOMALY":291.9959,"EPHEMERIS_TYPE":0,"CLASSIFICATION_TYPE":"U","NORAD_CAT_ID":49213,"ELEMENT_SET_NO":999,"REV_AT_EPOCH":22468,"BSTAR":0.00010046447,"MEAN_MOTION_DOT":5.4e-7,"MEAN_MOTION_DDOT":0},{"OBJECT_NAME":"ONEWEB-0350","OBJECT_ID":"2021-083AE","EPOCH":"2026-03-17T04:11:02.767776","MEAN_MOTION":13.13471512,"ECCENTRICITY":0.00018818,"INCLINATION":87.9028,"RA_OF_ASC_NODE":338.5274,"ARG_OF_PERICENTER":69.1772,"MEAN_ANOMALY":290.9558,"EPHEMERIS_TYPE":0,"CLASSIFICATION_TYPE":"U","NORAD_CAT_ID":49214,"ELEMENT_SET_NO":999,"REV_AT_EPOCH":21885,"BSTAR":0.0010036941,"MEAN_MOTION_DOT":3.79e-6,"MEAN_MOTION_DDOT":0}]
